[{"OBJECT_NAME":"BUFENG 1A","OBJECT_ID":"2019-032A","EPOCH":"2026-03-09T22:03:27.507168","MEAN_MOTION":15.26012088,"ECCENTRICITY":0.00054719,"INCLINATION":44.9758,"RA_OF_ASC_NODE":238.6688,"ARG_OF_PERICENTER":55.4463,"MEAN_ANOMALY":304.6935,"EPHEMERIS_TYPE":0,"CLASSIFICATION_TYPE":"U","NORAD_CAT_ID":44310,"ELEMENT_SET_NO":999,"REV_AT_EPOCH":37201,"BSTAR":0.00062413703,"MEAN_MOTION_DOT":0.00016103,"MEAN_MOTION_DDOT":0},{"OBJECT_NAME":"STARLINK-32096","OBJECT_ID":"2024-086S","EPOCH":"2026-03-09T08:52:55.696512","MEAN_MOTION":15.27574249,"ECCENTRICITY":0.00012315,"INCLINATION":43.0042,"RA_OF_ASC_NODE":61.6649,"ARG_OF_PERICENTER":239.2604,"MEAN_ANOMALY":120.8127,"EPHEMERIS_TYPE":0,"CLASSIFICATION_TYPE":"U","NORAD_CAT_ID":59698,"ELEMENT_SET_NO":999,"REV_AT_EPOCH":10406,"BSTAR":-2.5208181e-5,"MEAN_MOTION_DOT":-9.56e-6,"MEAN_MOTION_DDOT":0}]
